TERRESTAR-1             
1 35496U 09035A   15356.98685717 -.00000061  00000-0  00000+0 0  9992
2 35496   3.3562 335.4291 0003129 294.0310  66.0287  1.00271893 23767
ASIASAT 5               
1 35696U 09042A   15358.53870969 -.00000316  00000-0  00000+0 0  9993
2 35696   0.0062 157.1971 0001597  87.7395 142.2348  1.00271367 23298
JCSAT-RA (JCSAT-12)     
1 35755U 09044A   15358.38738044 -.00000354  00000-0  00000+0 0  9993
2 35755   0.0488  35.5183 0000986 198.3962 126.0722  1.00272626 23284
OPTUS D3                
1 35756U 09044B   15358.53019348 -.00000156  00000-0  00000+0 0  9990
2 35756   0.0388 349.6413 0003981 301.2345 148.7515  1.00271160 23257
PALAPA D                
1 35812U 09046A   15356.43466492 -.00000363  00000-0  00000+0 0  9998
2 35812   0.0271  12.3927 0002148 283.1245  64.4605  1.00270873 23272
NIMIQ 5                 
1 35873U 09050A   15357.36323310 -.00000264  00000-0  00000+0 0  9994
2 35873   0.0379 279.8620 0002345 347.2020 242.5740  1.00271094 22960
AMAZONAS 2              
1 35942U 09054A   15355.45419995 -.00000287  00000-0  00000+0 0  9993
2 35942   0.0465 147.6565 0002975  74.5281 330.0266  1.00272939 22797
COMSATBW-1              
1 35943U 09054B   15356.84454256  .00000018  00000-0  00000-0 0  9999
2 35943   0.0448  45.9702 0002983 226.4202 185.6928  1.00269249 22915
NSS-12                  
1 36032U 09058A   15356.58928872  .00000065  00000-0  00000+0 0  9995
2 36032   0.0246 320.4579 0002721 316.9657  82.5463  1.00272280 22551
THOR 6                  
1 36033U 09058B   15358.16719196 -.00000018  00000-0  00000+0 0  9998
2 36033   0.0177 256.7976 0002173  21.0374 233.8866  1.00272183 22570
INTELSAT 14 (IS-14)     
1 36097U 09064A   15357.86909036 -.00000281  00000-0  00000+0 0  9997
2 36097   0.0223 304.3081 0002756 338.4834  77.1750  1.00271611 22321
EUTELSAT 36B            
1 36101U 09065A   15358.05307130  .00000147  00000-0  00000+0 0  9993
2 36101   0.0613   4.2136 0004782 272.5768 230.4656  1.00271604 22424
INTELSAT 15 (IS-15)     
1 36106U 09067A   15357.96446345 -.00000193  00000-0  00000+0 0  9993
2 36106   0.0164 330.7598 0003508 315.0102 238.7549  1.00270904 22210
DIRECTV 12              
1 36131U 09075A   15357.56461450 -.00000110  00000-0  00000+0 0  9999
2 36131   0.0345 188.6175 0000677  57.4662 306.1514  1.00272125 21995
BEIDOU G1               
1 36287U 10001A   15357.51641056 -.00000292  00000-0  10000-3 0  9995
2 36287   1.5633   6.8292 0005012 226.9045 183.9786  1.00270843 21784
RADUGA-1M 2             
1 36358U 10002A   15357.96446345 -.00000192  00000-0  00000+0 0  9992
2 36358   0.0079 307.9146 0004137 355.2593 221.2174  1.00274193 21627
SDO                     
1 36395U 10005A   15357.43284373 -.00000043  00000-0  00000+0 0  9994
2 36395  28.2541 150.2534 0002745 209.8747 145.7132  1.00270031 21634
INTELSAT 16 (IS-16)     
1 36397U 10006A   15358.49972325 -.00000253  00000-0  00000+0 0  9998
2 36397   0.0344  64.7504 0001929 208.2428 283.4430  1.00266579 21355
GOES 15                 
1 36411U 10008A   15358.11822860  .00000079  00000-0  00000+0 0  9999
2 36411   0.1684 261.3993 0002738   9.9936  88.5725  1.00282493 21305
ECHOSTAR 14             
1 36499U 10010A   15358.38531453 -.00000008  00000-0  00000+0 0  9995
2 36499   0.0161 331.3931 0002869 298.8291 202.1796  1.00271399 21156
SES-1                   
1 36516U 10016A   15358.13493473 -.00000122  00000-0  00000+0 0  9990
2 36516   0.0180 334.9292 0002296 286.0790 138.9032  1.00271045 20755
ASTRA 3B                
1 36581U 10021A   15358.05276637  .00000129  00000-0  00000+0 0  9996
2 36581   0.0507   0.8452 0002615 269.9477 223.9761  1.00273882 20276
COMSATBW-2              
1 36582U 10021B   15358.17414882  .00000080  00000-0  00000+0 0  9992
2 36582   0.0176 330.7983 0003247 315.6950 241.7470  1.00272536 20607
BEIDOU G3               
1 36590U 10024A   15357.88953481 -.00000364  00000-0  00000+0 0  9990
2 36590   1.4288  26.9841 0003989 278.2676 217.6520  1.00273540 20394
BADR-5                  
1 36592U 10025A   15356.71584942  .00000138  00000-0  00000+0 0  9994
2 36592   0.0214  89.7521 0003814 149.7069 135.1819  1.00273435 20508
COMS 1                  
1 36744U 10032A   15357.95522962 -.00000352  00000-0  00000+0 0  9991
2 36744   0.0370 136.7721 0001801 178.3222 249.1564  1.00270047 20260
ARABSAT-5A              
1 36745U 10032B   15357.14121980  .00000147  00000-0  00000+0 0  9999
2 36745   0.0520   2.4739 0002933 278.5340 251.6804  1.00271698 20232
ECHOSTAR 15             
1 36792U 10034A   15358.49637622 -.00000290  00000-0  00000+0 0  9997
2 36792   0.0255 336.4309 0002297 298.2782 295.0468  1.00271433 20015
BEIDOU IGSO 1           
1 36828U 10036A   15357.80338103 -.00000060  00000-0  10000-3 0  9995
2 36828  54.2608 198.8611 0041655 213.7419  87.9551  1.00289136 19821
NILESAT 201             
1 36830U 10037A   15358.12432662 -.00000066  00000-0  00000+0 0  9991
2 36830   0.0616 180.6313 0003778  86.3090 223.1191  1.00271563 19901
RASCOM-QAF 1R           
1 36831U 10037B   15357.73635812  .00000011  00000-0  00000+0 0  9999
2 36831   0.0165  48.4566 0004572 231.3096  80.1796  1.00272232 19909
CHINASAT 6A (ZX 6A)     
1 37150U 10042A   15357.95432447 -.00000362  00000-0  00000+0 0  9993
2 37150   0.0293 232.1220 0001152 342.5713 346.0896  1.00269785 19518
XM-5                    
1 37185U 10053A   15357.55299828 -.00000212  00000-0  00000+0 0  9997
2 37185   0.0161 322.1620 0000485 250.8884 352.5870  1.00270224 19055
BSAT-3B                 
1 37207U 10056B   15358.02158894 -.00000358  00000-0  00000+0 0  9996
2 37207   0.0526 332.5768 0004839 326.7578 270.5393  1.00271196 18892
BEIDOU G4               
1 37210U 10057A   15358.33446427 -.00000121  00000-0  00000+0 0  9995
2 37210   0.8345  44.5556 0008816 185.2107 143.1122  1.00273205 18903
SKYTERRA 1              
1 37218U 10061A   15357.93085616 -.00000124  00000-0  00000+0 0  9995
2 37218   3.8869 325.8490 0003982 211.5367 148.5823  1.00276955 18842
ZHONGXING-20A           
1 37234U 10064A   15358.45965235 -.00000345  00000-0  00000+0 0  9993
2 37234   0.0229 227.8702 0004440  83.4361  76.8908  1.00271138 18650
HYLAS 1                 
1 37237U 10065A   15358.36147454 -.00000242  00000-0  00000+0 0  9998
2 37237   0.0232 344.3897 0002746 299.7253 265.1081  1.00270543 18627
INTELSAT 17 (IS-17)     
1 37238U 10065B   15358.02632523 -.00000009  00000-0  00000+0 0  9999
2 37238   0.0259  41.0768 0002997 236.5335 250.0784  1.00271462 18537
BEIDOU IGSO 2           
1 37256U 10068A   15357.82950822 -.00000254  00000-0  10000-3 0  9991
2 37256  53.7913 317.5499 0042366 208.5838 342.3777  1.00295550 18410
EUTELSAT KA-SAT 9A      
1 37258U 10069A   15356.02045840  .00000056  00000-0  00000+0 0  9994
2 37258   0.0461 294.3696 0001178 132.3303  39.9310  1.00271366 18414
HISPASAT 1E             
1 37264U 10070A   15358.05137137 -.00000224  00000-0  00000+0 0  9997
2 37264   0.0445 148.5317 0003384  95.8819 196.3354  1.00270712 18284
KOREASAT 6              
1 37265U 10070B   15357.58557096 -.00000369  00000-0  00000+0 0  9995
2 37265   0.0108 333.4903 0002697 303.0883 142.0273  1.00270663 18304
ELEKTRO-L 1 (GOMS 2)    
1 37344U 11001A   15357.08028924 -.00000106  00000-0  00000+0 0  9995
2 37344   1.3542  80.0000 0002892 100.2119  16.1371  1.00271257 18071
BEIDOU IGSO 3           
1 37384U 11013A   15357.90431084 -.00000218  00000-0  10000-3 0  9997
2 37384  57.1640  78.6279 0025494 199.2730 259.2768  1.00259978 17293
INTELSAT NEW DAWN       
1 37392U 11016A   15356.14502447  .00000150  00000-0  00000+0 0  9995
2 37392   0.0206  10.5095 0000804 179.9506 344.9475  1.00257706 17139
YAHSAT 1A               
1 37393U 11016B   15357.91154241  .00000094  00000-0  00000+0 0  9994
2 37393   0.0229   2.5987 0002981 279.5929 190.5747  1.00266565 17196
TELSTAR 14R             
1 37602U 11021A   15355.35803512 -.00000284  00000-0  00000+0 0  9993
2 37602   0.0144   9.7197 0002651 252.8698 252.9027  1.00269997 17374
GSAT-8                  
1 37605U 11022A   15358.09281023  .00000077  00000-0  00000+0 0  9997
2 37605   0.0868  90.6852 0008699 177.7207 272.3924  1.00270711 16856
ST-2                    
1 37606U 11022B   15357.78580718 -.00000218  00000-0  00000+0 0  9994
2 37606   0.0073 290.2145 0002387 350.2093 182.4501  1.00269022 16863
CHINASAT 10 (ZX 10)     
1 37677U 11026A   15357.57400678 -.00000359  00000-0  00000+0 0  9995
2 37677   0.0486  83.9455 0004156 156.0091 168.9475  1.00267425 16589
TIANLIAN 1-02           
1 37737U 11032A   15357.57646458 -.00000056  00000-0  00000+0 0  9991
2 37737   1.4910  79.7887 0033933 191.5173 195.1096  1.00274369 16334
GSAT-12                 
1 37746U 11034A   15358.08489284 -.00000173  00000-0  00000+0 0  9992
2 37746   0.0789 268.9589 0003219 236.7474  60.1036  1.00273838 16586
SES-3                   
1 37748U 11035A   15358.41281162 -.00000110  00000-0  00000+0 0  9998
2 37748   0.0264 313.1295 0002967 317.7895 227.3045  1.00270660 16317
KAZSAT-2                
1 37749U 11035B   15357.78595824 -.00000208  00000-0  00000+0 0  9999
2 37749   0.0025 149.9440 0001278 148.9140 162.6137  1.00283186 16186
BEIDOU IGSO 4           
1 37763U 11038A   15357.95266403 -.00000007  00000-0  10000-3 0  9997
2 37763  54.5713 201.1347 0034568 200.1122 129.9635  1.00274514 16258
ASTRA 1N                
1 37775U 11041A   15355.95730676  .00000115  00000-0  00000+0 0  9994
2 37775   0.0708  31.2080 0002030 296.4116 126.4177  1.00273688 15991
BSAT-3C (JCSAT-110R)    
1 37776U 11041B   15358.02158894 -.00000358  00000-0  00000+0 0  9992
2 37776   0.0145 355.3405 0000621   3.2437 211.3870  1.00269627 16153
PAKSAT-1R               
1 37779U 11042A   15358.05312466  .00000146  00000-0  00000+0 0  9990
2 37779   0.0208 227.2937 0002718  29.8534 252.2866  1.00274553 15897
CHINASAT 1A (ZX 1A)     
1 37804U 11047A   15355.62316009 -.00000342  00000-0  00000+0 0  9990
2 37804   0.0471 119.1029 0003284 182.6684 142.3030  1.00270775 15672
